satname,norad_id,inclination_deg,eccentricity,mean_motion_rev_per_day,perigee_km,apogee_km,l1,l2
STARLINK-1404,45686,53.1588,0.0003228,15.39500668,445.3815098384903,449.78819586669215,1 45686U 20035AF  26112.50563508  .00038088  00000+0  96108-3 0  9996,2 45686  53.1588 204.5842 0003228   7.4852 352.6200 15.39500668325705
STARLINK-1413,45689,53.1594,0.0001851,15.31180811,471.0200942325855,473.55612160753753,1 45689U 20035AJ  26112.52352213  .00033614  00000+0  11078-2 0  9992,2 45689  53.1594 205.9207 0001851  38.6395 321.4738 15.31180811325608
STARLINK-1417,45693,53.0499,0.0004693,15.14698197,518.6567752544715,525.1331452523655,1 45693U 20035AN  26112.57224775  .00015689  00000+0  85182-3 0  9993,2 45693  53.0499 215.0707 0004693   9.0187 351.0889 15.14698197325542
STARLINK-1420,45695,53.0466,0.0006871,15.62469372,375.88275224540666,385.1705078057885,1 45695U 20035AQ  26112.35838134  .00075262  00000+0  82852-3 0  9995,2 45695  53.0466 170.2970 0006871 342.2497  17.8276 15.62469372326168
STARLINK-1422,45696,53.1587,0.0002019,15.31372702,470.3328420141479,473.0988125858112,1 45696U 20035AR  26112.52916609  .00034935  00000+0  11438-2 0  9992,2 45696  53.1587 205.8784 0002019  24.1981 335.9115 15.31372702325684
STARLINK-1351,45697,53.0456,0.0007402,15.59727139,383.43751168154995,393.45476135685294,1 45697U 20035AS  26112.38279118  .00066167  00000+0  81095-3 0  9993,2 45697  53.0456 169.9212 0007402 343.7441  16.3333 15.59727139326172
STARLINK-1400,45700,53.0443,0.0005738,15.58478671,388.1746373265505,395.9441146876561,1 45700U 20035AV  26112.66057208  .00057055  00000+0  73516-3 0  9998,2 45700  53.0443 170.4885 0005738 311.2628  48.7889 15.58478671326182
STARLINK-1403,45701,53.1543,0.0001623,15.30263591,473.9129365050576,476.1374729567124,1 45701U 20035AW  26112.51019573  .00029563  00000+0  10043-2 0  9994,2 45701  53.1543 193.1696 0001623  25.5575 334.5506 15.30263591325850
STARLINK-1407,45703,53.0305,0.0002838,15.66971189,365.66115915111914,369.4900256185565,1 45703U 20035AY  26112.27320184  .00047143  00000+0  43800-3 0  9994,2 45703  53.0305 102.0366 0002838 307.1133  52.9622 15.66971189327117
STARLINK-1411,45706,53.0385,0.0005877,15.72489836,347.8284705293372,355.7388192553435,1 45706U 20035BB  26112.75877519  .00103950  00000+0  75778-3 0  9997,2 45706  53.0385 124.4078 0005877  23.9723 336.1567 15.72489836326833
STARLINK-1423,45710,53.0438,0.0007656,15.6440666,369.775575792155,380.11589607741917,1 45710U 20035BF  26112.35598238  .00035156  00000+0  36336-3 0  9995,2 45710  53.0438 170.1119 0007656 315.8841  44.1561 15.64406660326152
STARLINK-1433,45711,53.0436,0.0007186,15.63654264,372.25753022429944,381.9661738744644,1 45711U 20035BG  26112.64820140  .00064993  00000+0  68466-3 0  9998,2 45711  53.0436 167.1339 0007186 324.7594  35.2944 15.63654264326221
STARLINK-1434,45712,53.0524,0.000399,15.30693261,471.0087765085791,476.47657649042594,1 45712U 20035BH  26112.49903257  .00023425  00000+0  78830-3 0  9994,2 45712  53.0524 176.4652 0003990 321.0753  38.9959 15.30693261326092
STARLINK-1465,45731,53.0483,0.0004917,15.56872525,393.38369201664136,400.04608136201205,1 45731U 20038B   26112.19863847  .00062224  00000+0  85039-3 0  9994,2 45731  53.0483  13.2775 0004917  98.1565 262.0004 15.56872525323148
STARLINK-1471,45735,53.0465,0.0001907,15.51241939,411.8038085795424,414.39398595076,1 45735U 20038F   26112.74609714  .00017426  00000+0  29959-3 0  9993,2 45735  53.0465 290.5554 0001907  61.1547 298.9653 15.51241939324360
STARLINK-1480,45741,53.0513,0.0002649,15.58594903,389.9294449932795,393.51611670517286,1 45741U 20038M   26112.13731334  .00046103  00000+0  59379-3 0  9990,2 45741  53.0513   7.4688 0002649 161.2128 198.8982 15.58594903323232
STARLINK-1500,45744,53.0372,0.0003459,15.37038342,452.5092128225915,457.23628896825994,1 45744U 20038Q   26111.94759340  .00021325  00000+0  58875-3 0  9997,2 45744  53.0372 349.4631 0003459  70.5174 289.6202 15.37038342323464
STARLINK-1504,45746,53.0224,7.97e-05,15.56107655,398.3945904415623,399.4748556742179,1 45746U 20038S   26112.78503537  .00023624  00000+0  33813-3 0  9996,2 45746  53.0224 288.9539 0000797  29.5990 330.5065 15.56107655324377
STARLINK-1506,45747,53.0773,0.0004238,15.27599841,480.0819401015824,485.8974310802896,1 45747U 20038T   26112.84591904  .00022067  00000+0  81716-3 0  9994,2 45747  53.0773 357.9316 0004238  53.8615 306.2775 15.27599841323439
STARLINK-1464,45751,53.0491,0.0002927,15.49314591,416.7404874166414,420.7193733176773,1 45751U 20038X   26112.05851051  .00056929  00000+0  10238-2 0  9998,2 45751  53.0491 357.5952 0002927 107.3302 252.8027 15.49314591323363
STARLINK-1477,45754,53.052,0.0003451,15.16573596,513.8261509115237,518.5846260280459,1 45754U 20038AA  26112.15800216  .00013339  00000+0  68959-3 0  9991,2 45754  53.0520  15.0365 0003451 105.2391 254.8984 15.16573596323125
STARLINK-1478,45755,53.0481,0.0002585,15.624495,378.8368072106623,382.3310659348708,1 45755U 20038AB  26112.03595477  .00087216  00000+0  95936-3 0  9999,2 45755  53.0481 347.0879 0002585  99.1311 260.9995 15.62449500323498
STARLINK-1493,45759,53.05,0.0004498,15.5759891,391.56204422936935,397.6548060138084,1 45759U 20038AF  26112.82519791  .00061663  00000+0  82039-3 0  9993,2 45759  53.0500 351.4332 0004498 166.7918 193.3211 15.57598910323502
STARLINK-1494,45760,53.0461,0.000294,15.84725737,315.12870713032135,319.06550478462486,1 45760U 20038AG  26112.73992324  .00120336  00000+0  50466-3 0  9994,2 45760  53.0461 290.8878 0002940 207.0143 153.0728 15.84725737324359
STARLINK-1502,45764,53.0491,0.0006266,15.53940377,400.98411220030175,409.4850334553694,1 45764U 20038AL  26111.93555003  .00057908  00000+0  88216-3 0  9996,2 45764  53.0491 358.3447 0006266 146.1469 213.9942 15.53940377323344
STARLINK-1470,45772,53.0456,0.0002858,15.317085,468.7572554814742,472.67205908877713,1 45772U 20038AU  26112.05074305  .00034285  00000+0  11111-2 0  9992,2 45772  53.0456 332.4623 0002858 151.9902 208.1252 15.31708500323719
STARLINK-1482,45773,53.1592,0.0003074,15.33807401,462.3617204851744,466.5685522786216,1 45773U 20038AV  26112.06619332  .00031280  00000+0  95060-3 0  9997,2 45773  53.1592 349.0082 0003074 151.3036 208.8136 15.33807401323493
STARLINK-1496,45780,53.0489,0.0001487,15.55668708,399.2015339645168,401.21741420591025,1 45780U 20038BC  26112.81636654  .00069470  00000+0  99130-3 0  9998,2 45780  53.0489 325.4273 0001487 267.9613  92.1227 15.55668708323861
STARLINK-1513,45786,53.1615,0.0001514,15.3169589,469.7153251171885,471.78916878116524,1 45786U 20038BJ  26112.05275080  .00001486  00000+0  59639-4 0  9996,2 45786  53.1615 349.6624 0001514  83.4828 276.6345 15.31695890323481
STARLINK-1522,46027,53.066,0.0001833,15.11097055,531.5862788795839,534.1198478368115,1 46027U 20055A   26111.96565028  .00018744  00000+0  11211-2 0  9994,2 46027  53.0660 291.1291 0001833 178.8636 181.2360 15.11097055315420
STARLINK-1523,46028,53.1631,0.0001271,15.30203226,474.3343773579709,476.07649700550246,1 46028U 20055B   26112.74035403  .00001354  00000+0  57844-4 0  9994,2 46028  53.1631 282.0896 0001271  96.9010 263.2136 15.30203226315648
STARLINK-1526,46029,53.1619,0.0001172,15.3020845,474.3866294529771,475.9930492641224,1 46029U 20055C   26112.73402932  .00002498  00000+0  96407-4 0  9997,2 46029  53.1619 282.1287 0001172  84.6417 275.4717 15.30208450315638
STARLINK-1555,46032,53.1599,0.0001217,15.30201367,474.3769353566495,476.0450402568822,1 46032U 20055F   26112.71823059  .00001024  00000+0  46702-4 0  9993,2 46032  53.1599 282.1856 0001217 101.3619 258.7518 15.30201367315635
STARLINK-1556,46033,53.1588,0.0001405,15.30206489,474.23280125986366,476.15858774701974,1 46033U 20055G   26112.76669104  .00001162  00000+0  51348-4 0  9993,2 46033  53.1588 281.9767 0001405  91.3176 268.7985 15.30206489315614
STARLINK-1557,46034,53.1538,0.0001251,15.29354423,476.8833027891442,478.59864345802,1 46034U 20055H   26112.76524150  .00004121  00000+0  15505-3 0  9997,2 46034  53.1538 281.9339 0001251  86.9118 273.2026 15.29354423315617
STARLINK-1558,46035,53.1593,0.0001283,15.30190145,474.3652059850865,476.1237836766604,1 46035U 20055J   26111.86282993  .00001022  00000+0  46638-4 0  9993,2 46035  53.1593 286.1718 0001283  93.0557 267.0590 15.30190145315504
STARLINK-1560,46036,53.1578,0.0002207,15.29362107,476.2049218344573,479.2310962354459,1 46036U 20055K   26111.78175462 -.00001548  00000+0 -41277-4 0  9996,2 46036  53.1578 286.5320 0002207  81.0179 279.1071 15.29362107315498
STARLINK-1567,46038,53.0835,0.0001714,15.93889878,290.2662592931156,292.55257980573697,1 46038U 20055M   26112.91668980  .00392066  71266-4  10537-2 0  9992,2 46038  53.0835 271.1699 0001714 311.7071 318.3773 15.93889878  2757
STARLINK-1569,46039,53.1588,0.0001214,15.3018973,474.41373329574617,476.0777346235527,1 46039U 20055N   26111.86599024  .00001591  00000+0  65850-4 0  9991,2 46039  53.1588 286.1519 0001214  90.2561 269.8579 15.30189730315492
STARLINK-1582,46043,53.1599,0.0001206,15.31720808,469.85200127741246,471.50393544778217,1 46043U 20055S   26112.77776353  .00004533  00000+0  15766-3 0  9998,2 46043  53.1599 281.8141 0001206  76.7579 283.3557 15.31720808315632
STARLINK-1591,46045,53.1596,0.0001068,15.30212353,474.4462517742486,475.9101198979424,1 46045U 20055U   26112.74772725  .00004319  00000+0  15779-3 0  9992,2 46045  53.1596 282.0602 0001068  78.8046 281.3074 15.30212353315614
STARLINK-1524,46047,53.1593,0.0001121,15.30192085,474.4704388682776,476.00696570072887,1 46047U 20055W   26111.82749512  .00001424  00000+0  60190-4 0  9992,2 46047  53.1593 273.4689 0001121  95.3107 264.8022 15.30192085315678
STARLINK-1527,46048,53.1591,9.51e-05,15.31717577,470.0362763849116,471.33892282375746,1 46048U 20055X   26112.80767471  .00002199  00000+0  82555-4 0  9995,2 46048  53.1591 268.9506 0000951  90.3932 269.7178 15.31717577315806
